IRIDIUM 173             
1 43925U 19002D   24303.57285381  .00001526  00000+0  53786-3 0  9991
2 43925  86.3970 242.4256 0002066  82.1059 278.0371 14.34222229303591
IRIDIUM 169             
1 43926U 19002E   24303.92440427  .00001771  00000+0  57251-3 0  9998
2 43926  86.4180 273.9155 0003526 111.6810 248.4764 14.38612344304647
IRIDIUM 172             
1 43927U 19002F   24303.35720493  .00001098  00000+0  38479-3 0  9993
2 43927  86.3968 242.5216 0002143  83.7446 276.3994 14.34223743303561
IRIDIUM 175             
1 43928U 19002G   24303.68843150  .00005458  00000+0  86063-3 0  9992
2 43928  86.1563 208.0016 0002975  86.6482 273.5074 14.72275812311621
IRIDIUM 171             
1 43929U 19002H   24304.10562951  .00001395  00000+0  49091-3 0  9994
2 43929  86.3981 242.4494 0002346  72.9499 287.1954 14.34224700303669
IRIDIUM 170             
1 43930U 19002J   24303.36023708  .00004397  00000+0  69260-3 0  9990
2 43930  86.6099 242.5564 0002136  82.7362 277.4098 14.72283456311595
IRIDIUM 167             
1 43931U 19002K   24303.75042021  .00000908  00000+0  31687-3 0  9999
2 43931  86.3972 242.3745 0002339  77.9959 282.1499 14.34232797303617
IRIDIUM 181             
1 56726U 23068S   24304.06659257  .00000723  00000+0  20776-3 0  9994
2 56726  86.8580 302.5575 0002470  81.4613 278.6868 14.43578505 76590
IRIDIUM 177             
1 56727U 23068T   24303.27920646  .00006516  00000+0  85303-3 0  9993
2 56727  86.1958 251.6619 0003242  87.9825 272.1767 14.80255211 78215
IRIDIUM 174             
1 56728U 23068U   24303.27374421  .00006647  00000+0  86991-3 0  9997
2 56728  86.1964 251.7789 0002931  81.4525 278.7029 14.80271547 78215
IRIDIUM 178             
1 56729U 23068V   24303.80916347  .00002241  00000+0  29163-3 0  9990
2 56729  86.5723 275.3756 0002933  78.6873 281.4677 14.80216263 78297
IRIDIUM 179             
1 56730U 23068W   24302.99252401  .00002558  00000+0  33304-3 0  9998
2 56730  86.6732 281.5486 0003054  92.9390 267.2181 14.80251139 78177
